[{"OBJECT_NAME":"CSTP 1.2 (STC 1.2)","OBJECT_ID":"2023-091W","EPOCH":"2026-03-09T23:12:27.821952","MEAN_MOTION":15.2718076,"ECCENTRICITY":0.00204388,"INCLINATION":97.5258,"RA_OF_ASC_NODE":134.3262,"ARG_OF_PERICENTER":84.9592,"MEAN_ANOMALY":275.3979,"EPHEMERIS_TYPE":0,"CLASSIFICATION_TYPE":"U","NORAD_CAT_ID":57186,"ELEMENT_SET_NO":999,"REV_AT_EPOCH":14930,"BSTAR":0.00043035718,"MEAN_MOTION_DOT":0.00011466,"MEAN_MOTION_DDOT":0},{"OBJECT_NAME":"STARLINK-32361","OBJECT_ID":"2024-207X","EPOCH":"2026-03-09T22:07:41.465280","MEAN_MOTION":15.27598509,"ECCENTRICITY":0.00020521,"INCLINATION":42.9969,"RA_OF_ASC_NODE":280.7526,"ARG_OF_PERICENTER":252.9929,"MEAN_ANOMALY":107.0698,"EPHEMERIS_TYPE":0,"CLASSIFICATION_TYPE":"U","NORAD_CAT_ID":61933,"ELEMENT_SET_NO":999,"REV_AT_EPOCH":7475,"BSTAR":0.0012588947,"MEAN_MOTION_DOT":0.00034563,"MEAN_MOTION_DDOT":0}]
